CCSDS_OMM_VERS = 2.0
CREATION_DATE  = 
ORIGINATOR     = 

OBJECT_NAME    = SL-8 R/B
OBJECT_ID      = 1985-006B
CENTER_NAME    = EARTH
REF_FRAME      = TEME
TIME_SYSTEM    = UTC
MEAN_ELEMENT_THEORY = SGP/SGP4

EPOCH          = 2025-11-29T01:33:50.619744
MEAN_MOTION    = 14.37708164
ECCENTRICITY   = .0018095
INCLINATION    = 74.0459
RA_OF_ASC_NODE = 86.2924
ARG_OF_PERICENTER = 22.4209
MEAN_ANOMALY   = 150.6714

EPHEMERIS_TYPE = 0
CLASSIFICATION_TYPE = U
NORAD_CAT_ID   = 15483
ELEMENT_SET_NO = 999
REV_AT_EPOCH   = 13956
BSTAR          = .11597E-3
MEAN_MOTION_DOT = .323E-5
MEAN_MOTION_DDOT = 0

CCSDS_OMM_VERS = 2.0
CREATION_DATE  = 
ORIGINATOR     = 

OBJECT_NAME    = SL-12 R/B(2)
OBJECT_ID      = 1985-042D
CENTER_NAME    = EARTH
REF_FRAME      = TEME
TIME_SYSTEM    = UTC
MEAN_ELEMENT_THEORY = SGP/SGP4

EPOCH          = 2025-11-29T03:48:56.424096
MEAN_MOTION    = 14.21945014
ECCENTRICITY   = .0037671
INCLINATION    = 71.1079
RA_OF_ASC_NODE = 300.1108
ARG_OF_PERICENTER = 281.3760
MEAN_ANOMALY   = 89.1541

EPHEMERIS_TYPE = 0
CLASSIFICATION_TYPE = U
NORAD_CAT_ID   = 15772
ELEMENT_SET_NO = 999
REV_AT_EPOCH   = 10010
BSTAR          = .10489E-3
MEAN_MOTION_DOT = .185E-5
MEAN_MOTION_DDOT = 0

CCSDS_OMM_VERS = 2.0
CREATION_DATE  = 
ORIGINATOR     = 

OBJECT_NAME    = SL-14 R/B
OBJECT_ID      = 1985-069B
CENTER_NAME    = EARTH
REF_FRAME      = TEME
TIME_SYSTEM    = UTC
MEAN_ELEMENT_THEORY = SGP/SGP4

EPOCH          = 2025-11-29T04:04:19.032672
MEAN_MOTION    = 14.86298068
ECCENTRICITY   = .0019305
INCLINATION    = 82.5252
RA_OF_ASC_NODE = 119.4600
ARG_OF_PERICENTER = 161.1777
MEAN_ANOMALY   = 199.0158

EPHEMERIS_TYPE = 0
CLASSIFICATION_TYPE = U
NORAD_CAT_ID   = 15945
ELEMENT_SET_NO = 999
REV_AT_EPOCH   = 15790
BSTAR          = .74385E-4
MEAN_MOTION_DOT = .681E-5
MEAN_MOTION_DDOT = 0

CCSDS_OMM_VERS = 2.0
CREATION_DATE  = 
ORIGINATOR     = 

OBJECT_NAME    = SL-16 R/B
OBJECT_ID      = 1985-097B
CENTER_NAME    = EARTH
REF_FRAME      = TEME
TIME_SYSTEM    = UTC
MEAN_ELEMENT_THEORY = SGP/SGP4

EPOCH          = 2025-11-29T05:22:47.459424
MEAN_MOTION    = 14.16582513
ECCENTRICITY   = .0005883
INCLINATION    = 71.0036
RA_OF_ASC_NODE = 352.0584
ARG_OF_PERICENTER = 33.0513
MEAN_ANOMALY   = 40.5886

EPHEMERIS_TYPE = 0
CLASSIFICATION_TYPE = U
NORAD_CAT_ID   = 16182
ELEMENT_SET_NO = 999
REV_AT_EPOCH   = 7300
BSTAR          = -.37962E-4
MEAN_MOTION_DOT = -.124E-5
MEAN_MOTION_DDOT = 0

CCSDS_OMM_VERS = 2.0
CREATION_DATE  = 
ORIGINATOR     = 

OBJECT_NAME    = SL-14 R/B
OBJECT_ID      = 1986-006B
CENTER_NAME    = EARTH
REF_FRAME      = TEME
TIME_SYSTEM    = UTC
MEAN_ELEMENT_THEORY = SGP/SGP4

EPOCH          = 2025-11-29T04:06:31.897728
MEAN_MOTION    = 14.86642761
ECCENTRICITY   = .0075322
INCLINATION    = 82.5271
RA_OF_ASC_NODE = 354.3193
ARG_OF_PERICENTER = 245.4255
MEAN_ANOMALY   = 113.9100

EPHEMERIS_TYPE = 0
CLASSIFICATION_TYPE = U
NORAD_CAT_ID   = 16496
ELEMENT_SET_NO = 999
REV_AT_EPOCH   = 13427
BSTAR          = .80774E-4
MEAN_MOTION_DOT = .78E-5
MEAN_MOTION_DDOT = 0

CCSDS_OMM_VERS = 2.0
CREATION_DATE  = 
ORIGINATOR     = 

OBJECT_NAME    = COSMOS 1743
OBJECT_ID      = 1986-034A
CENTER_NAME    = EARTH
REF_FRAME      = TEME
TIME_SYSTEM    = UTC
MEAN_ELEMENT_THEORY = SGP/SGP4

EPOCH          = 2025-11-29T01:07:26.571648
MEAN_MOTION    = 15.51167127
ECCENTRICITY   = .0005166
INCLINATION    = 82.5359
RA_OF_ASC_NODE = 178.8027
ARG_OF_PERICENTER = 314.8242
MEAN_ANOMALY   = 45.2590

EPHEMERIS_TYPE = 0
CLASSIFICATION_TYPE = U
NORAD_CAT_ID   = 16719
ELEMENT_SET_NO = 999
REV_AT_EPOCH   = 16461
BSTAR          = .42716E-3
MEAN_MOTION_DOT = .25027E-3
MEAN_MOTION_DDOT = 0

CCSDS_OMM_VERS = 2.0
CREATION_DATE  = 
ORIGINATOR     = 

OBJECT_NAME    = SL-14 R/B
OBJECT_ID      = 1986-046B
CENTER_NAME    = EARTH
REF_FRAME      = TEME
TIME_SYSTEM    = UTC
MEAN_ELEMENT_THEORY = SGP/SGP4

EPOCH          = 2025-11-29T00:58:08.800896
MEAN_MOTION    = 14.85462667
ECCENTRICITY   = .0022633
INCLINATION    = 82.4815
RA_OF_ASC_NODE = 175.2516
ARG_OF_PERICENTER = 197.2418
MEAN_ANOMALY   = 162.8032

EPHEMERIS_TYPE = 0
CLASSIFICATION_TYPE = U
NORAD_CAT_ID   = 16792
ELEMENT_SET_NO = 999
REV_AT_EPOCH   = 11146
BSTAR          = .60299E-4
MEAN_MOTION_DOT = .546E-5
MEAN_MOTION_DDOT = 0

CCSDS_OMM_VERS = 2.0
CREATION_DATE  = 
ORIGINATOR     = 

OBJECT_NAME    = SL-14 R/B
OBJECT_ID      = 1986-055B
CENTER_NAME    = EARTH
REF_FRAME      = TEME
TIME_SYSTEM    = UTC
MEAN_ELEMENT_THEORY = SGP/SGP4

EPOCH          = 2025-11-29T04:24:45.346752
MEAN_MOTION    = 14.85509663
ECCENTRICITY   = .0017774
INCLINATION    = 82.5215
RA_OF_ASC_NODE = 221.1090
ARG_OF_PERICENTER = 307.9861
MEAN_ANOMALY   = 167.0784

EPHEMERIS_TYPE = 0
CLASSIFICATION_TYPE = U
NORAD_CAT_ID   = 16882
ELEMENT_SET_NO = 999
REV_AT_EPOCH   = 10444
BSTAR          = .63156E-4
MEAN_MOTION_DOT = .57E-5
MEAN_MOTION_DDOT = 0

CCSDS_OMM_VERS = 2.0
CREATION_DATE  = 
ORIGINATOR     = 

OBJECT_NAME    = AJISAI (EGS)
OBJECT_ID      = 1986-061A
CENTER_NAME    = EARTH
REF_FRAME      = TEME
TIME_SYSTEM    = UTC
MEAN_ELEMENT_THEORY = SGP/SGP4

EPOCH          = 2025-11-29T04:52:23.902752
MEAN_MOTION    = 12.44514107
ECCENTRICITY   = .0011249
INCLINATION    = 50.0111
RA_OF_ASC_NODE = 42.3411
ARG_OF_PERICENTER = 31.9134
MEAN_ANOMALY   = 180.4346

EPHEMERIS_TYPE = 0
CLASSIFICATION_TYPE = U
NORAD_CAT_ID   = 16908
ELEMENT_SET_NO = 999
REV_AT_EPOCH   = 45548
BSTAR          = -.38451E-4
MEAN_MOTION_DOT = -.103E-5
MEAN_MOTION_DDOT = 0

CCSDS_OMM_VERS = 2.0
CREATION_DATE  = 
ORIGINATOR     = 

OBJECT_NAME    = COSMOS 1812
OBJECT_ID      = 1987-003A
CENTER_NAME    = EARTH
REF_FRAME      = TEME
TIME_SYSTEM    = UTC
MEAN_ELEMENT_THEORY = SGP/SGP4

EPOCH          = 2025-11-29T04:30:10.985760
MEAN_MOTION    = 15.72345456
ECCENTRICITY   = .0006874
INCLINATION    = 82.4872
RA_OF_ASC_NODE = 306.6524
ARG_OF_PERICENTER = 104.8308
MEAN_ANOMALY   = 255.3717

EPHEMERIS_TYPE = 0
CLASSIFICATION_TYPE = U
NORAD_CAT_ID   = 17295
ELEMENT_SET_NO = 999
REV_AT_EPOCH   = 12852
BSTAR          = .62547E-3
MEAN_MOTION_DOT = .83541E-3
MEAN_MOTION_DDOT = 0

CCSDS_OMM_VERS = 2.0
CREATION_DATE  = 
ORIGINATOR     = 

OBJECT_NAME    = SL-14 R/B
OBJECT_ID      = 1987-024B
CENTER_NAME    = EARTH
REF_FRAME      = TEME
TIME_SYSTEM    = UTC
MEAN_ELEMENT_THEORY = SGP/SGP4

EPOCH          = 2025-11-29T02:38:48.516000
MEAN_MOTION    = 14.86003285
ECCENTRICITY   = .0017032
INCLINATION    = 82.5283
RA_OF_ASC_NODE = 187.2574
ARG_OF_PERICENTER = 231.1343
MEAN_ANOMALY   = 128.8354

EPHEMERIS_TYPE = 0
CLASSIFICATION_TYPE = U
NORAD_CAT_ID   = 17567
ELEMENT_SET_NO = 999
REV_AT_EPOCH   = 7319
BSTAR          = .55657E-4
MEAN_MOTION_DOT = .511E-5
MEAN_MOTION_DDOT = 0

CCSDS_OMM_VERS = 2.0
CREATION_DATE  = 
ORIGINATOR     = 

OBJECT_NAME    = COSMOS 1833
OBJECT_ID      = 1987-027A
CENTER_NAME    = EARTH
REF_FRAME      = TEME
TIME_SYSTEM    = UTC
MEAN_ELEMENT_THEORY = SGP/SGP4

EPOCH          = 2025-11-28T23:37:22.204992
MEAN_MOTION    = 14.13017979
ECCENTRICITY   = .0021952
INCLINATION    = 70.9123
RA_OF_ASC_NODE = 177.6940
ARG_OF_PERICENTER = 351.1126
MEAN_ANOMALY   = 8.9603

EPHEMERIS_TYPE = 0
CLASSIFICATION_TYPE = U
NORAD_CAT_ID   = 17589
ELEMENT_SET_NO = 999
REV_AT_EPOCH   = 99608
BSTAR          = .14868E-4
MEAN_MOTION_DOT = -.2E-6
MEAN_MOTION_DDOT = 0

CCSDS_OMM_VERS = 2.0
CREATION_DATE  = 
ORIGINATOR     = 

OBJECT_NAME    = SL-16 R/B
OBJECT_ID      = 1987-027B
CENTER_NAME    = EARTH
REF_FRAME      = TEME
TIME_SYSTEM    = UTC
MEAN_ELEMENT_THEORY = SGP/SGP4

EPOCH          = 2025-11-28T19:50:17.786400
MEAN_MOTION    = 14.17150417
ECCENTRICITY   = .0007341
INCLINATION    = 71.0010
RA_OF_ASC_NODE = 129.0349
ARG_OF_PERICENTER = 274.1108
MEAN_ANOMALY   = 85.9176

EPHEMERIS_TYPE = 0
CLASSIFICATION_TYPE = U
NORAD_CAT_ID   = 17590
ELEMENT_SET_NO = 999
REV_AT_EPOCH   = 105
BSTAR          = .15312E-3
MEAN_MOTION_DOT = .261E-5
MEAN_MOTION_DDOT = 0

CCSDS_OMM_VERS = 2.0
CREATION_DATE  = 
ORIGINATOR     = 

OBJECT_NAME    = SL-14 R/B
OBJECT_ID      = 1987-038B
CENTER_NAME    = EARTH
REF_FRAME      = TEME
TIME_SYSTEM    = UTC
MEAN_ELEMENT_THEORY = SGP/SGP4

EPOCH          = 2025-11-29T04:31:13.629216
MEAN_MOTION    = 14.85241663
ECCENTRICITY   = .0020452
INCLINATION    = 82.5029
RA_OF_ASC_NODE = 31.4637
ARG_OF_PERICENTER = 133.8778
MEAN_ANOMALY   = 226.4132

EPHEMERIS_TYPE = 0
CLASSIFICATION_TYPE = U
NORAD_CAT_ID   = 17912
ELEMENT_SET_NO = 999
REV_AT_EPOCH   = 6431
BSTAR          = .59065E-4
MEAN_MOTION_DOT = .533E-5
MEAN_MOTION_DDOT = 0

CCSDS_OMM_VERS = 2.0
CREATION_DATE  = 
ORIGINATOR     = 

OBJECT_NAME    = COSMOS 1844
OBJECT_ID      = 1987-041A
CENTER_NAME    = EARTH
REF_FRAME      = TEME
TIME_SYSTEM    = UTC
MEAN_ELEMENT_THEORY = SGP/SGP4

EPOCH          = 2025-11-29T04:43:12.305280
MEAN_MOTION    = 14.14528208
ECCENTRICITY   = .0030624
INCLINATION    = 70.8994
RA_OF_ASC_NODE = 246.1345
ARG_OF_PERICENTER = 178.3812
MEAN_ANOMALY   = 181.7415

EPHEMERIS_TYPE = 0
CLASSIFICATION_TYPE = U
NORAD_CAT_ID   = 17973
ELEMENT_SET_NO = 999
REV_AT_EPOCH   = 98937
BSTAR          = -.38831E-4
MEAN_MOTION_DOT = -.123E-5
MEAN_MOTION_DDOT = 0

